INTELSAT 902 (IS-902)   
1 26900U 01039A   26116.90808589 -.00000290  00000+0  00000+0 0  9993
2 26900   5.9893  72.3941 0004515 320.0211  99.3035  1.00270761 90184
INTELSAT 904 (IS-904)   
1 27380U 02007A   26116.70164001 -.00000233  00000+0  00000+0 0  9991
2 27380   6.7944  69.7905 0007747 338.9290  27.0697  1.00269764 51256
DIRECTV 5 (TEMPO 1)     
1 27426U 02023A   26117.20962398 -.00000063  00000+0  00000+0 0  9992
2 27426   4.7500  75.9287 0003499 323.3824 141.2470  1.00272048 87612
INTELSAT 905 (IS-905)   
1 27438U 02027A   26117.03723470  .00000088  00000+0  00000+0 0  9992
2 27438   6.6280  70.4041 0003493 339.7055  41.1333  1.00273783 50859
GALAXY 3C (G-3C)        
1 27445U 02030A   26117.18222561 -.00000160  00000+0  00000+0 0  9997
2 27445   3.6002  78.6573 0001612  24.7309  82.5201  1.00271753 45986
INTELSAT 906 (IS-906)   
1 27513U 02041A   26117.00577457  .00000007  00000+0  00000+0 0  9992
2 27513   5.6741  73.5351 0004039 336.0928 231.6081  1.00270668 86515
GALAXY 13 (HORIZONS-1)  
1 27954U 03044A   26117.03472135  .00000123  00000+0  00000+0 0  9994
2 27954   1.2871  84.4613 0002205 314.6722  38.3979  1.00273581 46059
INTELSAT 10-02          
1 28358U 04022A   26117.22267126  .00000000  00000+0  00000+0 0  9997
2 28358   0.0153  73.7645 0001266   0.9311 219.6436  1.00270002 80043
DIRECTV 8               
1 28659U 05019A   26117.18848610  .00000000  00000+0  00000+0 0  9996
2 28659   0.0127 229.7537 0003270 174.6363 119.5929  1.00271122 76565
GALAXY 28 (G-28)        
1 28702U 05022A   26117.23378113 -.00000208  00000+0  00000+0 0  9992
2 28702   3.1700  79.5407 0003209 324.0494 228.6682  1.00267456 51465
GALAXY 16 (G-16)        
1 29236U 06023A   26117.27602973 -.00000137  00000+0  00000+0 0  9996
2 29236   0.0199 226.5011 0002790 167.8766 181.2568  1.00273294 72467
DIRECTV 9S              
1 29494U 06043A   26117.13586163 -.00000122  00000+0  00000+0 0  9995
2 29494   2.2910  81.4858 0004233 330.2039 111.1439  1.00271726 50876
GALAXY 17 (G-17)        
1 31307U 07016B   26117.04763473 -.00000214  00000+0  00000+0 0  9995
2 31307   2.8449  80.5166 0004333 329.9040  96.7647  1.00270879 69298
INTELSAT 11 (IS-11)     
1 32253U 07044B   26117.22822620 -.00000216  00000+0  00000+0 0  9999
2 32253   3.4349  79.2641 0001332 225.6244 342.3380  0.99053050 67943
HORIZONS-2              
1 32388U 07063B   26117.12961399 -.00000262  00000+0  00000+0 0  9996
2 32388   2.4725  81.2253 0003459 322.6535 144.1123  1.00272444 67300
DIRECTV 11              
1 32729U 08013A   26117.00600437 -.00000136  00000+0  00000+0 0  9991
2 32729   0.0159 106.6815 0000308 257.4247 113.8610  1.00271519 45082
GALAXY 18 (G-18)        
1 32951U 08024A   26117.25036410  .00000015  00000+0  00000+0 0  9996
2 32951   0.0156 261.0535 0003253 142.5227 138.7919  1.00272012 45341
